NORAD_CAT_ID,OBJECT_NAME,OBJECT_TYPE,EPOCH,MEAN_MOTION,ECCENTRICITY,INCLINATION,RA_OF_ASC_NODE,ARG_OF_PERICENTER,MEAN_ANOMALY,BSTAR,MEAN_MOTION_DOT,MEAN_MOTION_DDOT,TLE_LINE0,TLE_LINE1,TLE_LINE2,SEMIMAJOR_AXIS,PERIOD,APOGEE,PERIGEE,DECAYED
51997.0,STARLINK-3589,PAYLOAD,2023-03-31 14:09:01,15.08863253,0.0001365,53.2166,160.9441,92.4947,267.6202,0.00070603,0.00010973,0.0,0 STARLINK-3589,1 51997U 22025AT  23090.58959757  .00010973  00000-0  70603-3 0  9990,2 51997  53.2166 160.9441 0001365  92.4947 267.6202 15.08863253 60272,6917.809,95.436,540.619,538.73,0.0
51997.0,STARLINK-3589,PAYLOAD,2023-03-31 22:05:57,15.08834011,0.0001833,53.2159,159.4578,68.7865,291.3323,-3.9586e-05,-9.18e-06,0.0,0 STARLINK-3589,1 51997U 22025AT  23090.92080701 -.00000918  00000-0 -39586-4 0  9998,2 51997  53.2159 159.4578 0001833  68.7865 291.3323 15.08834011 60327,6917.899,95.438,541.032,538.496,0.0
51997.0,STARLINK-3589,PAYLOAD,2023-04-01 10:49:03,15.08827589,0.0001567,53.2172,157.0747,93.3993,266.7179,-0.00010088,-1.893e-05,0.0,0 STARLINK-3589,1 51997U 22025AT  23091.45073126 -.00001893  00000-0 -10088-3 0  9998,2 51997  53.2172 157.0747 0001567  93.3993 266.7179 15.08827589 58889,6917.918,95.438,540.867,538.699,0.0
51997.0,STARLINK-3589,PAYLOAD,2023-04-01 15:35:12,15.08832844,0.0001632,53.2167,156.1831,96.8936,263.2241,8.6625e-05,1.091e-05,0.0,0 STARLINK-3589,1 51997U 22025AT  23091.64945205  .00001091  00000-0  86625-4 0  9994,2 51997  53.2167 156.1831 0001632  96.8936 263.2241 15.08832844 58911,6917.902,95.438,540.896,538.638,0.0
51997.0,STARLINK-3589,PAYLOAD,2023-04-02 10:39:49,15.08891226,0.0001903,53.2184,152.621,87.0667,273.0543,0.0018904,0.00029968,0.0,0 STARLINK-3589,1 51997U 22025AT  23092.44432216  .00029968  00000-0  18904-2 0  9992,2 51997  53.2184 152.6210 0001903  87.0667 273.0543 15.08891226 60552,6917.724,95.434,540.905,538.272,0.0
51997.0,STARLINK-3589,PAYLOAD,2023-04-02 15:25:57,15.08914911,0.0001425,53.2169,151.7243,73.7572,286.3577,0.0024111,0.00038373,0.0,0 STARLINK-3589,1 51997U 22025AT  23092.64303221  .00038373  00000-0  24111-2 0  9994,2 51997  53.2169 151.7243 0001425  73.7572 286.3577 15.08914911 60581,6917.651,95.433,540.502,538.531,0.0
51997.0,STARLINK-3589,PAYLOAD,2023-04-03 10:30:36,15.08835071,0.0001348,53.2171,148.1574,88.8221,271.2926,-0.00047248,-7.798e-05,0.0,0 STARLINK-3589,1 51997U 22025AT  23093.43791889 -.00007798  00000-0 -47248-3 0  9999,2 51997  53.2171 148.1574 0001348  88.8221 271.2926 15.08835071 60707,6917.895,95.438,540.693,538.828,0.0
51997.0,STARLINK-3589,PAYLOAD,2023-04-03 13:41:22,15.08827314,0.0001321,53.2169,147.5633,93.1731,266.9412,-0.00031806,-5.344e-05,0.0,0 STARLINK-3589,1 51997U 22025AT  23093.57040196 -.00005344  00000-0 -31806-3 0  9990,2 51997  53.2169 147.5633 0001321  93.1731 266.9412 15.08827314 59204,6917.919,95.438,540.698,538.87,0.0
51997.0,STARLINK-3589,PAYLOAD,2023-04-03 20:02:55,15.08825825,0.0001319,53.2166,146.3738,91.4998,268.6145,0.00045438,6.948e-05,0.0,0 STARLINK-3589,1 51997U 22025AT  23093.83536708  .00006948  00000-0  45438-3 0  9993,2 51997  53.2166 146.3738 0001319  91.4998 268.6145 15.08825825 59248,6917.924,95.438,540.701,538.876,0.0
51997.0,STARLINK-3589,PAYLOAD,2023-04-04 08:46:00,15.08845358,0.0001381,53.216,143.9948,88.8116,271.3034,0.0010969,0.00017215,0.0,0 STARLINK-3589,1 51997U 22025AT  23094.36528920  .00017215  00000-0  10969-2 0  9998,2 51997  53.2160 143.9948 0001381  88.8116 271.3034 15.08845358 60848,6917.864,95.437,540.684,538.774,0.0
51997.0,STARLINK-3589,PAYLOAD,2023-04-04 11:56:47,15.08850436,0.0001389,53.216,143.4,89.6149,270.5003,0.0010932,0.00017158,0.0,0 STARLINK-3589,1 51997U 22025AT  23094.49776797  .00017158  00000-0  10932-2 0  9995,2 51997  53.2160 143.4000 0001389  89.6149 270.5003 15.08850436 59348,6917.848,95.437,540.674,538.753,0.0
51997.0,STARLINK-3589,PAYLOAD,2023-04-05 03:50:38,15.08843284,0.0001409,53.2155,140.4263,94.1856,265.9297,0.00041539,6.33e-05,0.0,0 STARLINK-3589,1 51997U 22025AT  23095.16017087  .00006330  00000-0  41539-3 0  9998,2 51997  53.2155 140.4263 0001409  94.1856 265.9297 15.08843284 60965,6917.87,95.437,540.71,538.761,0.0
51997.0,STARLINK-3589,PAYLOAD,2023-04-05 13:22:57,15.08842757,0.0001247,53.2152,138.6419,85.4272,274.6863,0.00046962,7.195e-05,0.0,0 STARLINK-3589,1 51997U 22025AT  23095.55761219  .00007195  00000-0  46962-3 0  9999,2 51997  53.2152 138.6419 0001247  85.4272 274.6863 15.08842757 59507,6917.872,95.437,540.6,538.874,0.0
51997.0,STARLINK-3589,PAYLOAD,2023-04-05 19:44:30,15.08840633,0.0001232,53.2149,137.4524,90.2653,269.848,0.00044055,6.731e-05,0.0,0 STARLINK-3589,1 51997U 22025AT  23095.82257308  .00006731  00000-0  44055-3 0  9994,2 51997  53.2149 137.4524 0001232  90.2653 269.8480 15.08840633 59544,6917.878,95.438,540.596,538.891,0.0
51997.0,STARLINK-3589,PAYLOAD,2023-04-06 02:06:02,15.08843062,0.0001249,53.2147,136.2623,88.7951,271.3184,0.00044366,6.781e-05,0.0,0 STARLINK-3589,1 51997U 22025AT  23096.08753293  .00006781  00000-0  44366-3 0  9997,2 51997  53.2147 136.2623 0001249  88.7951 271.3184 15.08843062 61103,6917.871,95.437,540.6,538.872,0.0
51997.0,STARLINK-3589,PAYLOAD,2023-04-06 10:02:58,15.08848957,0.0001269,53.2149,134.7757,89.1266,270.9872,0.00045503,6.963e-05,0.0,0 STARLINK-3589,1 51997U 22025AT  23096.41873065  .00006963  00000-0  45503-3 0  9990,2 51997  53.2149 134.7757 0001269  89.1266 270.9872 15.08848957 59634,6917.853,95.437,540.596,538.84,0.0
51997.0,STARLINK-3589,PAYLOAD,2023-04-06 14:49:07,15.08852511,0.0001273,53.2143,133.8834,89.4519,270.6619,0.00047592,7.297e-05,0.0,0 STARLINK-3589,1 51997U 22025AT  23096.61744878  .00007297  00000-0  47592-3 0  9992,2 51997  53.2143 133.8834 0001273  89.4519 270.6619 15.08852511 59663,6917.842,95.437,540.588,538.827,0.0
51997.0,STARLINK-3589,PAYLOAD,2023-04-07 11:29:08,15.08839751,0.0001328,53.2159,130.0181,85.492,274.6224,0.00010079,1.317e-05,0.0,0 STARLINK-3589,1 51997U 22025AT  23097.47857537  .00001317  00000-0  10079-3 0  9991,2 51997  53.2159 130.0181 0001328  85.4920 274.6224 15.08839751 61319,6917.881,95.438,540.665,538.827,0.0
51997.0,STARLINK-3589,PAYLOAD,2023-04-08 12:55:18,15.08849651,0.0001606,53.2161,125.261,72.6669,287.4499,0.00019075,2.75e-05,0.0,0 STARLINK-3589,1 51997U 22025AT  23098.53841117  .00002750  00000-0  19075-3 0  9993,2 51997  53.2161 125.2610 0001606  72.6669 287.4499 15.08849651 59955,6917.851,95.437,540.827,538.605,0.0
51997.0,STARLINK-3589,PAYLOAD,2023-04-08 19:16:51,15.08845806,0.0001911,53.217,124.0718,62.9945,297.1242,9.3949e-05,1.208e-05,0.0,0 STARLINK-3589,1 51997U 22025AT  23098.80337356  .00001208  00000-0  93949-4 0  9998,2 51997  53.2170 124.0718 0001911  62.9945 297.1242 15.08845806 61516,6917.863,95.437,541.05,538.406,0.0
51997.0,STARLINK-3589,PAYLOAD,2023-04-09 11:10:42,15.0884274,0.0001538,53.2174,121.0957,77.9871,282.1294,8.5875e-05,1.079e-05,0.0,0 STARLINK-3589,1 51997U 22025AT  23099.46577312  .00001079  00000-0  85875-4 0  9994,2 51997  53.2174 121.0957 0001538  77.9871 282.1294 15.08842740 60098,6917.872,95.437,540.801,538.673,0.0
51997.0,STARLINK-3589,PAYLOAD,2023-04-09 12:46:05,15.0884468,0.0001568,53.2176,120.7989,76.4309,283.6858,9.8192e-05,1.275e-05,0.0,0 STARLINK-3589,1 51997U 22025AT  23099.53201128  .00001275  00000-0  98192-4 0  9995,2 51997  53.2176 120.7989 0001568  76.4309 283.6858 15.08844680 60103,6917.866,95.437,540.816,538.646,0.0
51997.0,STARLINK-3589,PAYLOAD,2023-04-10 06:15:20,15.08840561,0.0001444,53.2174,117.5272,92.2368,267.8789,-5.1025e-06,-3.69e-06,0.0,0 STARLINK-3589,1 51997U 22025AT  23100.26065546 -.00000369  00000-0 -51025-5 0  9990,2 51997  53.2174 117.5272 0001444  92.2368 267.8789 15.08840561 61735,6917.879,95.438,540.743,538.745,0.0
51997.0,STARLINK-3589,PAYLOAD,2023-04-10 12:36:52,15.0884446,0.000158,53.2183,116.3374,102.9724,257.1444,3.5818e-05,2.82e-06,0.0,0 STARLINK-3589,1 51997U 22025AT  23100.52561098  .00000282  00000-0  35818-4 0  9995,2 51997  53.2183 116.3374 0001580 102.9724 257.1444 15.08844460 60259,6917.867,95.437,540.825,538.639,0.0
51997.0,STARLINK-3589,PAYLOAD,2023-04-11 07:41:30,15.08840109,0.0001589,53.2177,112.7683,107.4107,252.7059,4.762e-05,4.7e-06,0.0,0 STARLINK-3589,1 51997U 22025AT  23101.32049279  .00000470  00000-0  47620-4 0  9999,2 51997  53.2177 112.7683 0001589 107.4107 252.7059 15.08840109 61899,6917.88,95.438,540.844,538.646,0.0
51997.0,STARLINK-3589,PAYLOAD,2023-04-11 12:27:39,15.08843278,0.0001604,53.2177,111.8758,109.6239,250.4927,7.3071e-05,8.75e-06,0.0,0 STARLINK-3589,1 51997U 22025AT  23101.51920985  .00000875  00000-0  73071-4 0  9990,2 51997  53.2177 111.8758 0001604 109.6239 250.4927 15.08843278 60405,6917.87,95.437,540.845,538.626,0.0
51997.0,STARLINK-3589,PAYLOAD,2023-04-11 17:13:50,15.08831626,0.0001624,53.2178,110.9844,99.0138,261.1038,-3.1882e-05,-7.95e-06,0.0,0 STARLINK-3589,1 51997U 22025AT  23101.71794103 -.00000795  00000-0 -31882-4 0  9990,2 51997  53.2178 110.9844 0001624  99.0138 261.1038 15.08831626 61951,6917.906,95.438,540.894,538.648,0.0
51997.0,STARLINK-3589,PAYLOAD,2023-04-12 07:32:18,15.08836025,0.0001474,53.2173,108.3083,107.1267,252.9886,3.8561e-05,3.26e-06,0.0,0 STARLINK-3589,1 51997U 22025AT  23102.31409812  .00000326  00000-0  38561-4 0  9996,2 51997  53.2173 108.3083 0001474 107.1267 252.9886 15.08836025 60528,6917.893,95.438,540.777,538.738,0.0
51997.0,STARLINK-3589,PAYLOAD,2023-04-12 17:04:36,15.08836724,0.0001368,53.2171,106.525,101.4893,258.6252,3.2509e-05,2.29e-06,0.0,0 STARLINK-3589,1 51997U 22025AT  23102.71153905  .00000229  00000-0  32509-4 0  9997,2 51997  53.2171 106.5250 0001368 101.4893 258.6252 15.08836724 62108,6917.89,95.438,540.702,538.809,0.0
51997.0,STARLINK-3589,PAYLOAD,2023-04-13 08:58:28,15.08838353,0.000144,53.2174,103.5517,107.363,252.752,1.9303e-05,1.9e-07,0.0,0 STARLINK-3589,1 51997U 22025AT  23103.37394166  .00000019  00000-0  19303-4 0  9990,2 51997  53.2174 103.5517 0001440 107.3630 252.7520 15.08838353 60683,6917.885,95.438,540.747,538.754,0.0
